start=new Date('2023-02-28T00:00:00.000Z').valueOf();
sats=[{"TLE_LINE1":"1 53064U 22077X   23058.78554572  .00001290  00000-0  10500-3 0  9998","SEMIMAJOR_AXIS":"6941.120","RA_OF_ASC_NODE":"241.4348","PERIOD":"95.919","FILE":"3846812","DECAY_DATE":null,"MEAN_ANOMALY":"268.4591","SITE":"AFWTR","TIME_SYSTEM":"UTC","EPOCH":"2023-02-27T18:51:11.150208","ELEMENT_SET_NO":"999","ECCENTRICITY":"0.00016980","EPHEMERIS_TYPE":"0","COUNTRY_CODE":"US","APOAPSIS":"564.163","TLE_LINE2":"2 53064  97.6570 241.4348 0001698  91.6827 268.4591 15.01268790 34996","MEAN_MOTION":"15.01268790","CLASSIFICATION_TYPE":"U","REV_AT_EPOCH":"3499","OBJECT_TYPE":"PAYLOAD","INCLINATION":"97.6570","ARG_OF_PERICENTER":"91.6827","RCS_SIZE":"LARGE","GP_ID":"227196527","PERIAPSIS":"561.806","LAUNCH_DATE":"2022-07-11","MEAN_MOTION_DOT":"0.00001290","OBJECT_ID":"2022-077X","MEAN_MOTION_DDOT":"0.0000000000000","OBJECT_NAME":"STARLINK-4313","NORAD_CAT_ID":"53064","MEAN_ELEMENT_THEORY":"SGP4","REF_FRAME":"TEME","CENTER_NAME":"EARTH","BSTAR":"0.00010500000000"},{"BSTAR":"0.00016056000000","CENTER_NAME":"EARTH","MEAN_ELEMENT_THEORY":"SGP4","REF_FRAME":"TEME","NORAD_CAT_ID":"53065","OBJECT_NAME":"STARLINK-4312","OBJECT_ID":"2022-077Y","MEAN_MOTION_DDOT":"0.0000000000000","MEAN_MOTION_DOT":"0.00002004","LAUNCH_DATE":"2022-07-11","PERIAPSIS":"561.544","RCS_SIZE":"LARGE","GP_ID":"227195276","INCLINATION":"97.6549","ARG_OF_PERICENTER":"90.6034","REV_AT_EPOCH":"3499","OBJECT_TYPE":"PAYLOAD","CLASSIFICATION_TYPE":"U","MEAN_MOTION":"15.01267877","TLE_LINE2":"2 53065  97.6549 241.4340 0002080  90.6034 269.5428 15.01267877 34996","EPHEMERIS_TYPE":"0","COUNTRY_CODE":"US","APOAPSIS":"564.431","ECCENTRICITY":"0.00020800","TIME_SYSTEM":"UTC","ELEMENT_SET_NO":"999","EPOCH":"2023-02-27T18:43:11.085888","SITE":"AFWTR","MEAN_ANOMALY":"269.5428","DECAY_DATE":null,"FILE":"3846812","PERIOD":"95.919","SEMIMAJOR_AXIS":"6941.123","RA_OF_ASC_NODE":"241.4340","TLE_LINE1":"1 53065U 22077Y   23058.77998942  .00002004  00000-0  16056-3 0  9997"},{"MEAN_ELEMENT_THEORY":"SGP4","REF_FRAME":"TEME","CENTER_NAME":"EARTH","BSTAR":"0.00019162000000","NORAD_CAT_ID":"53066","OBJECT_NAME":"STARLINK-4309","MEAN_MOTION_DOT":"0.00002404","MEAN_MOTION_DDOT":"0.0000000000000","OBJECT_ID":"2022-077Z","PERIAPSIS":"561.674","LAUNCH_DATE":"2022-07-11","GP_ID":"227195525","RCS_SIZE":"LARGE","OBJECT_TYPE":"PAYLOAD","REV_AT_EPOCH":"3499","INCLINATION":"97.6553","ARG_OF_PERICENTER":"91.7920","CLASSIFICATION_TYPE":"U","TLE_LINE2":"2 53066  97.6553 241.4344 0001881  91.7920 268.3519 15.01270357 34995","MEAN_MOTION":"15.01270357","APOAPSIS":"564.286","EPHEMERIS_TYPE":"0","COUNTRY_CODE":"US","ECCENTRICITY":"0.00018810","ELEMENT_SET_NO":"999","EPOCH":"2023-02-27T18:45:51.023520","TIME_SYSTEM":"UTC","MEAN_ANOMALY":"268.3519","SITE":"AFWTR","FILE":"3846812","DECAY_DATE":null,"PERIOD":"95.919","TLE_LINE1":"1 53066U 22077Z   23058.78184055  .00002404  00000-0  19162-3 0  9996","RA_OF_ASC_NODE":"241.4344","SEMIMAJOR_AXIS":"6941.115"},{"CLASSIFICATION_TYPE":"U","ARG_OF_PERICENTER":"86.5597","INCLINATION":"97.6547","REV_AT_EPOCH":"3499","OBJECT_TYPE":"PAYLOAD","GP_ID":"227196277","RCS_SIZE":"LARGE","PERIAPSIS":"561.275","LAUNCH_DATE":"2022-07-11","OBJECT_ID":"2022-077AA","MEAN_MOTION_DDOT":"0.0000000000000","MEAN_MOTION_DOT":"0.00001831","OBJECT_NAME":"STARLINK-4306","NORAD_CAT_ID":"53067","BSTAR":"0.00014708000000","MEAN_ELEMENT_THEORY":"SGP4","CENTER_NAME":"EARTH","REF_FRAME":"TEME","SEMIMAJOR_AXIS":"6941.125","RA_OF_ASC_NODE":"241.4320","TLE_LINE1":"1 53067U 22077AA  23058.77628792  .00001831  00000-0  14708-3 0  9991","PERIOD":"95.919","DECAY_DATE":null,"FILE":"3846812","SITE":"AFWTR","MEAN_ANOMALY":"273.5910","TIME_SYSTEM":"UTC","EPOCH":"2023-02-27T18:37:51.276288","ELEMENT_SET_NO":"999","ECCENTRICITY":"0.00024720","COUNTRY_CODE":"US","EPHEMERIS_TYPE":"0","APOAPSIS":"564.706","MEAN_MOTION":"15.01266928","TLE_LINE2":"2 53067  97.6547 241.4320 0002472  86.5597 273.5910 15.01266928 34994"},{"OBJECT_TYPE":"PAYLOAD","REV_AT_EPOCH":"3499","ARG_OF_PERICENTER":"83.9477","INCLINATION":"97.6547","CLASSIFICATION_TYPE":"U","LAUNCH_DATE":"2022-07-11","PERIAPSIS":"561.648","GP_ID":"227196028","RCS_SIZE":"LARGE","OBJECT_NAME":"STARLINK-4325","MEAN_MOTION_DOT":"0.00006042","MEAN_MOTION_DDOT":"0.0000000000000","OBJECT_ID":"2022-077AB","MEAN_ELEMENT_THEORY":"SGP4","CENTER_NAME":"EARTH","REF_FRAME":"TEME","BSTAR":"0.00047457000000","NORAD_CAT_ID":"53068","PERIOD":"95.919","TLE_LINE1":"1 53068U 22077AB  23058.77839356  .00006042  00000-0  47457-3 0  9998","RA_OF_ASC_NODE":"241.4335","SEMIMAJOR_AXIS":"6941.133","MEAN_ANOMALY":"276.1969","SITE":"AFWTR","FILE":"3846812","DECAY_DATE":null,"ECCENTRICITY":"0.00019460","ELEMENT_SET_NO":"999","EPOCH":"2023-02-27T18:40:53.203584","TIME_SYSTEM":"UTC","TLE_LINE2":"2 53068  97.6547 241.4335 0001946  83.9477 276.1969 15.01264375 34991","MEAN_MOTION":"15.01264375","APOAPSIS":"564.349","EPHEMERIS_TYPE":"0","COUNTRY_CODE":"US"},{"TIME_SYSTEM":"UTC","EPOCH":"2023-02-27T18:32:31.375968","ELEMENT_SET_NO":"999","ECCENTRICITY":"0.00025400","COUNTRY_CODE":"US","EPHEMERIS_TYPE":"0","APOAPSIS":"564.740","TLE_LINE2":"2 53069  97.6539 241.4294 0002540  91.9938 268.1577 15.01271350 34996","MEAN_MOTION":"15.01271350","TLE_LINE1":"1 53069U 22077AC  23058.77258537 -.00001471  00000-0 -10989-3 0  9998","SEMIMAJOR_AXIS":"6941.112","RA_OF_ASC_NODE":"241.4294","PERIOD":"95.919","FILE":"3846812","DECAY_DATE":null,"MEAN_ANOMALY":"268.1577","SITE":"AFWTR","MEAN_MOTION_DOT":"-0.00001471","OBJECT_ID":"2022-077AC","MEAN_MOTION_DDOT":"0.0000000000000","OBJECT_NAME":"STARLINK-4323","NORAD_CAT_ID":"53069","REF_FRAME":"TEME","MEAN_ELEMENT_THEORY":"SGP4","CENTER_NAME":"EARTH","BSTAR":"-0.00010989000000","CLASSIFICATION_TYPE":"U","REV_AT_EPOCH":"3499","OBJECT_TYPE":"PAYLOAD","ARG_OF_PERICENTER":"91.9938","INCLINATION":"97.6539","RCS_SIZE":"LARGE","GP_ID":"227194777","PERIAPSIS":"561.214","LAUNCH_DATE":"2022-07-11"},{"EPHEMERIS_TYPE":"0","COUNTRY_CODE":"US","APOAPSIS":"564.845","MEAN_MOTION":"15.01288958","TLE_LINE2":"2 53070  97.6553 241.4336 0002769  97.8447 262.3091 15.01288958 34993","TIME_SYSTEM":"UTC","ELEMENT_SET_NO":"999","EPOCH":"2023-02-27T18:40:28.677216","ECCENTRICITY":"0.00027690","DECAY_DATE":null,"FILE":"3846812","SITE":"AFWTR","MEAN_ANOMALY":"262.3091","SEMIMAJOR_AXIS":"6941.058","RA_OF_ASC_NODE":"241.4336","TLE_LINE1":"1 53070U 22077AD  23058.77810969  .00003882  00000-0  30640-3 0  9995","PERIOD":"95.918","NORAD_CAT_ID":"53070","BSTAR":"0.00030640000000","REF_FRAME":"TEME","CENTER_NAME":"EARTH","MEAN_ELEMENT_THEORY":"SGP4","OBJECT_ID":"2022-077AD","MEAN_MOTION_DDOT":"0.0000000000000","MEAN_MOTION_DOT":"0.00003882","OBJECT_NAME":"STARLINK-4342","RCS_SIZE":"LARGE","GP_ID":"227195027","PERIAPSIS":"561.001","LAUNCH_DATE":"2022-07-11","CLASSIFICATION_TYPE":"U","ARG_OF_PERICENTER":"97.8447","INCLINATION":"97.6553","REV_AT_EPOCH":"3499","OBJECT_TYPE":"PAYLOAD"},{"ECCENTRICITY":"0.00024700","EPOCH":"2023-02-27T18:29:51.404640","ELEMENT_SET_NO":"999","TIME_SYSTEM":"UTC","TLE_LINE2":"2 53071  97.6535 241.4280 0002470  90.3553 269.7954 15.01268704 34993","MEAN_MOTION":"15.01268704","APOAPSIS":"564.699","COUNTRY_CODE":"US","EPHEMERIS_TYPE":"0","PERIOD":"95.919","TLE_LINE1":"1 53071U 22077AE  23058.77073385  .00001876  00000-0  15061-3 0  9990","RA_OF_ASC_NODE":"241.4280","SEMIMAJOR_AXIS":"6941.120","MEAN_ANOMALY":"269.7954","SITE":"AFWTR","FILE":"3846812","DECAY_DATE":null,"OBJECT_NAME":"STARLINK-4328","MEAN_MOTION_DOT":"0.00001876","MEAN_MOTION_DDOT":"0.0000000000000","OBJECT_ID":"2022-077AE","CENTER_NAME":"EARTH","MEAN_ELEMENT_THEORY":"SGP4","REF_FRAME":"TEME","BSTAR":"0.00015061000000","NORAD_CAT_ID":"53071","OBJECT_TYPE":"PAYLOAD","REV_AT_EPOCH":"3499","INCLINATION":"97.6535","ARG_OF_PERICENTER":"90.3553","CLASSIFICATION_TYPE":"U","PERIAPSIS":"561.271","LAUNCH_DATE":"2022-07-11","RCS_SIZE":"LARGE","GP_ID":"227195778"},{"ECCENTRICITY":"0.00026340","TIME_SYSTEM":"UTC","EPOCH":"2023-02-27T18:35:11.171904","ELEMENT_SET_NO":"999","MEAN_MOTION":"15.01269882","TLE_LINE2":"2 53072  97.6530 241.4310 0002634  88.5021 271.6505 15.01269882 34996","COUNTRY_CODE":"US","EPHEMERIS_TYPE":"0","APOAPSIS":"564.810","PERIOD":"95.919","SEMIMAJOR_AXIS":"6941.116","RA_OF_ASC_NODE":"241.4310","TLE_LINE1":"1 53072U 22077AF  23058.77443486  .00002136  00000-0  17077-3 0  9993","SITE":"AFWTR","MEAN_ANOMALY":"271.6505","DECAY_DATE":null,"FILE":"3846812","OBJECT_NAME":"STARLINK-4344","OBJECT_ID":"2022-077AF","MEAN_MOTION_DDOT":"0.0000000000000","MEAN_MOTION_DOT":"0.00002136","BSTAR":"0.00017077000000","REF_FRAME":"TEME","MEAN_ELEMENT_THEORY":"SGP4","CENTER_NAME":"EARTH","NORAD_CAT_ID":"53072","INCLINATION":"97.6530","ARG_OF_PERICENTER":"88.5021","REV_AT_EPOCH":"3499","OBJECT_TYPE":"PAYLOAD","CLASSIFICATION_TYPE":"U","PERIAPSIS":"561.153","LAUNCH_DATE":"2022-07-11","RCS_SIZE":"LARGE","GP_ID":"227196528"},{"INCLINATION":"97.6534","ARG_OF_PERICENTER":"95.6837","REV_AT_EPOCH":"3499","OBJECT_TYPE":"PAYLOAD","CLASSIFICATION_TYPE":"U","LAUNCH_DATE":"2022-07-11","PERIAPSIS":"561.260","GP_ID":"227195277","RCS_SIZE":"LARGE","OBJECT_NAME":"STARLINK-4346","OBJECT_ID":"2022-077AG","MEAN_MOTION_DDOT":"0.0000000000000","MEAN_MOTION_DOT":"0.00000671","BSTAR":"0.00005684400000","MEAN_ELEMENT_THEORY":"SGP4","CENTER_NAME":"EARTH","REF_FRAME":"TEME","NORAD_CAT_ID":"53073","PERIOD":"95.919","SEMIMAJOR_AXIS":"6941.115","RA_OF_ASC_NODE":"241.4237","TLE_LINE1":"1 53073U 22077AG  23058.76702819  .00000671  00000-0  56844-4 0  9999","SITE":"AFWTR","MEAN_ANOMALY":"264.4670","DECAY_DATE":null,"FILE":"3846812","ECCENTRICITY":"0.00024790","TIME_SYSTEM":"UTC","ELEMENT_SET_NO":"999","EPOCH":"2023-02-27T18:24:31.235616","MEAN_MOTION":"15.01270210","TLE_LINE2":"2 53073  97.6534 241.4237 0002479  95.6837 264.4670 15.01270210 34990","COUNTRY_CODE":"US","EPHEMERIS_TYPE":"0","APOAPSIS":"564.701"}];
